CCSDS_OMM_VERS = 2.0
CREATION_DATE  = 
ORIGINATOR     = 

OBJECT_NAME    = SL-3 R/B
OBJECT_ID      = 1982-079B
CENTER_NAME    = EARTH
REF_FRAME      = TEME
TIME_SYSTEM    = UTC
MEAN_ELEMENT_THEORY = SGP/SGP4

EPOCH          = 2026-03-04T11:34:48.102816
MEAN_MOTION    = 15.24705681
ECCENTRICITY   = .0024829
INCLINATION    = 81.1476
RA_OF_ASC_NODE = 199.2242
ARG_OF_PERICENTER = 182.3187
MEAN_ANOMALY   = 177.7936

EPHEMERIS_TYPE = 0
CLASSIFICATION_TYPE = U
NORAD_CAT_ID   = 13403
ELEMENT_SET_NO = 999
REV_AT_EPOCH   = 37690
BSTAR          = .39751E-3
MEAN_MOTION_DOT = .9946E-4
MEAN_MOTION_DDOT = 0

CCSDS_OMM_VERS = 2.0
CREATION_DATE  = 
ORIGINATOR     = 

OBJECT_NAME    = SL-14 R/B
OBJECT_ID      = 1982-092B
CENTER_NAME    = EARTH
REF_FRAME      = TEME
TIME_SYSTEM    = UTC
MEAN_ELEMENT_THEORY = SGP/SGP4

EPOCH          = 2026-03-04T07:51:51.201216
MEAN_MOTION    = 14.86660511
ECCENTRICITY   = .0019335
INCLINATION    = 82.5703
RA_OF_ASC_NODE = 146.4141
ARG_OF_PERICENTER = 322.4519
MEAN_ANOMALY   = 105.9030

EPHEMERIS_TYPE = 0
CLASSIFICATION_TYPE = U
NORAD_CAT_ID   = 13553
ELEMENT_SET_NO = 999
REV_AT_EPOCH   = 32813
BSTAR          = .77683E-4
MEAN_MOTION_DOT = .716E-5
MEAN_MOTION_DDOT = 0

CCSDS_OMM_VERS = 2.0
CREATION_DATE  = 
ORIGINATOR     = 

OBJECT_NAME    = SL-3 R/B
OBJECT_ID      = 1983-010B
CENTER_NAME    = EARTH
REF_FRAME      = TEME
TIME_SYSTEM    = UTC
MEAN_ELEMENT_THEORY = SGP/SGP4

EPOCH          = 2026-03-04T07:48:04.419360
MEAN_MOTION    = 15.46126696
ECCENTRICITY   = .0018388
INCLINATION    = 81.1063
RA_OF_ASC_NODE = 8.8216
ARG_OF_PERICENTER = 68.0841
MEAN_ANOMALY   = 292.2356

EPHEMERIS_TYPE = 0
CLASSIFICATION_TYPE = U
NORAD_CAT_ID   = 13819
ELEMENT_SET_NO = 999
REV_AT_EPOCH   = 35711
BSTAR          = .53683E-3
MEAN_MOTION_DOT = .26546E-3
MEAN_MOTION_DDOT = 0

CCSDS_OMM_VERS = 2.0
CREATION_DATE  = 
ORIGINATOR     = 

OBJECT_NAME    = SL-3 R/B
OBJECT_ID      = 1983-075B
CENTER_NAME    = EARTH
REF_FRAME      = TEME
TIME_SYSTEM    = UTC
MEAN_ELEMENT_THEORY = SGP/SGP4

EPOCH          = 2026-03-04T11:35:59.696448
MEAN_MOTION    = 15.38268030
ECCENTRICITY   = .001976
INCLINATION    = 97.6134
RA_OF_ASC_NODE = 67.8635
ARG_OF_PERICENTER = 246.2702
MEAN_ANOMALY   = 113.6469

EPHEMERIS_TYPE = 0
CLASSIFICATION_TYPE = U
NORAD_CAT_ID   = 14208
ELEMENT_SET_NO = 999
REV_AT_EPOCH   = 32935
BSTAR          = .45725E-3
MEAN_MOTION_DOT = .17285E-3
MEAN_MOTION_DDOT = 0

CCSDS_OMM_VERS = 2.0
CREATION_DATE  = 
ORIGINATOR     = 

OBJECT_NAME    = COSMOS 1536
OBJECT_ID      = 1984-013A
CENTER_NAME    = EARTH
REF_FRAME      = TEME
TIME_SYSTEM    = UTC
MEAN_ELEMENT_THEORY = SGP/SGP4

EPOCH          = 2026-03-04T04:53:27.893184
MEAN_MOTION    = 15.23742162
ECCENTRICITY   = .0012779
INCLINATION    = 82.5437
RA_OF_ASC_NODE = 113.3040
ARG_OF_PERICENTER = 304.9035
MEAN_ANOMALY   = 55.1000

EPHEMERIS_TYPE = 0
CLASSIFICATION_TYPE = U
NORAD_CAT_ID   = 14699
ELEMENT_SET_NO = 999
REV_AT_EPOCH   = 27178
BSTAR          = .39379E-3
MEAN_MOTION_DOT = .9517E-4
MEAN_MOTION_DDOT = 0

CCSDS_OMM_VERS = 2.0
CREATION_DATE  = 
ORIGINATOR     = 

OBJECT_NAME    = SL-14 R/B
OBJECT_ID      = 1984-027B
CENTER_NAME    = EARTH
REF_FRAME      = TEME
TIME_SYSTEM    = UTC
MEAN_ELEMENT_THEORY = SGP/SGP4

EPOCH          = 2026-03-04T12:11:44.803680
MEAN_MOTION    = 14.85970480
ECCENTRICITY   = .0017809
INCLINATION    = 82.5381
RA_OF_ASC_NODE = 249.8737
ARG_OF_PERICENTER = 355.5835
MEAN_ANOMALY   = 4.5221

EPHEMERIS_TYPE = 0
CLASSIFICATION_TYPE = U
NORAD_CAT_ID   = 14820
ELEMENT_SET_NO = 999
REV_AT_EPOCH   = 24686
BSTAR          = .79469E-4
MEAN_MOTION_DOT = .72E-5
MEAN_MOTION_DDOT = 0

CCSDS_OMM_VERS = 2.0
CREATION_DATE  = 
ORIGINATOR     = 

OBJECT_NAME    = SL-8 R/B
OBJECT_ID      = 1985-006B
CENTER_NAME    = EARTH
REF_FRAME      = TEME
TIME_SYSTEM    = UTC
MEAN_ELEMENT_THEORY = SGP/SGP4

EPOCH          = 2026-03-04T00:57:24.158016
MEAN_MOTION    = 14.37778554
ECCENTRICITY   = .001868
INCLINATION    = 74.0434
RA_OF_ASC_NODE = 271.5456
ARG_OF_PERICENTER = 190.6418
MEAN_ANOMALY   = 322.8304

EPHEMERIS_TYPE = 0
CLASSIFICATION_TYPE = U
NORAD_CAT_ID   = 15483
ELEMENT_SET_NO = 999
REV_AT_EPOCH   = 15321
BSTAR          = .81763E-4
MEAN_MOTION_DOT = .22E-5
MEAN_MOTION_DDOT = 0

CCSDS_OMM_VERS = 2.0
CREATION_DATE  = 
ORIGINATOR     = 

OBJECT_NAME    = SL-12 R/B(2)
OBJECT_ID      = 1985-042D
CENTER_NAME    = EARTH
REF_FRAME      = TEME
TIME_SYSTEM    = UTC
MEAN_ELEMENT_THEORY = SGP/SGP4

EPOCH          = 2026-03-04T11:55:51.591360
MEAN_MOTION    = 14.21980911
ECCENTRICITY   = .0033475
INCLINATION    = 71.1064
RA_OF_ASC_NODE = 98.7002
ARG_OF_PERICENTER = 136.6514
MEAN_ANOMALY   = 328.1502

EPHEMERIS_TYPE = 0
CLASSIFICATION_TYPE = U
NORAD_CAT_ID   = 15772
ELEMENT_SET_NO = 999
REV_AT_EPOCH   = 11365
BSTAR          = .9886E-4
MEAN_MOTION_DOT = .172E-5
MEAN_MOTION_DDOT = 0

CCSDS_OMM_VERS = 2.0
CREATION_DATE  = 
ORIGINATOR     = 

OBJECT_NAME    = SL-14 R/B
OBJECT_ID      = 1985-069B
CENTER_NAME    = EARTH
REF_FRAME      = TEME
TIME_SYSTEM    = UTC
MEAN_ELEMENT_THEORY = SGP/SGP4

EPOCH          = 2026-03-04T08:38:13.175808
MEAN_MOTION    = 14.86426087
ECCENTRICITY   = .0018004
INCLINATION    = 82.5274
RA_OF_ASC_NODE = 29.9442
ARG_OF_PERICENTER = 205.8051
MEAN_ANOMALY   = 154.2270

EPHEMERIS_TYPE = 0
CLASSIFICATION_TYPE = U
NORAD_CAT_ID   = 15945
ELEMENT_SET_NO = 999
REV_AT_EPOCH   = 17204
BSTAR          = .88147E-4
MEAN_MOTION_DOT = .804E-5
MEAN_MOTION_DDOT = 0

CCSDS_OMM_VERS = 2.0
CREATION_DATE  = 
ORIGINATOR     = 

OBJECT_NAME    = SL-16 R/B
OBJECT_ID      = 1985-097B
CENTER_NAME    = EARTH
REF_FRAME      = TEME
TIME_SYSTEM    = UTC
MEAN_ELEMENT_THEORY = SGP/SGP4

EPOCH          = 2026-03-04T11:35:03.197760
MEAN_MOTION    = 14.16599758
ECCENTRICITY   = .0009972
INCLINATION    = 71.0036
RA_OF_ASC_NODE = 151.5159
ARG_OF_PERICENTER = 265.9650
MEAN_ANOMALY   = 174.8235

EPHEMERIS_TYPE = 0
CLASSIFICATION_TYPE = U
NORAD_CAT_ID   = 16182
ELEMENT_SET_NO = 999
REV_AT_EPOCH   = 8649
BSTAR          = .35046E-5
MEAN_MOTION_DOT = -.41E-6
MEAN_MOTION_DDOT = 0

CCSDS_OMM_VERS = 2.0
CREATION_DATE  = 
ORIGINATOR     = 

OBJECT_NAME    = SL-14 R/B
OBJECT_ID      = 1986-006B
CENTER_NAME    = EARTH
REF_FRAME      = TEME
TIME_SYSTEM    = UTC
MEAN_ELEMENT_THEORY = SGP/SGP4

EPOCH          = 2026-03-04T01:39:32.388768
MEAN_MOTION    = 14.86806497
ECCENTRICITY   = .0075179
INCLINATION    = 82.5234
RA_OF_ASC_NODE = 265.0285
ARG_OF_PERICENTER = 291.8180
MEAN_ANOMALY   = 67.5051

EPHEMERIS_TYPE = 0
CLASSIFICATION_TYPE = U
NORAD_CAT_ID   = 16496
ELEMENT_SET_NO = 999
REV_AT_EPOCH   = 14837
BSTAR          = .86044E-4
MEAN_MOTION_DOT = .832E-5
MEAN_MOTION_DDOT = 0

CCSDS_OMM_VERS = 2.0
CREATION_DATE  = 
ORIGINATOR     = 

OBJECT_NAME    = COSMOS 1743
OBJECT_ID      = 1986-034A
CENTER_NAME    = EARTH
REF_FRAME      = TEME
TIME_SYSTEM    = UTC
MEAN_ELEMENT_THEORY = SGP/SGP4

EPOCH          = 2026-03-04T10:34:43.207968
MEAN_MOTION    = 15.58117279
ECCENTRICITY   = .0002166
INCLINATION    = 82.5292
RA_OF_ASC_NODE = 79.3382
ARG_OF_PERICENTER = 330.0166
MEAN_ANOMALY   = 30.0965

EPHEMERIS_TYPE = 0
CLASSIFICATION_TYPE = U
NORAD_CAT_ID   = 16719
ELEMENT_SET_NO = 999
REV_AT_EPOCH   = 17943
BSTAR          = .6299E-3
MEAN_MOTION_DOT = .47605E-3
MEAN_MOTION_DDOT = 0

